CCSDS_OMM_VERS = 2.0
CREATION_DATE  = 
ORIGINATOR     = 

OBJECT_NAME    = 1998-067XK
OBJECT_ID      = 1998-067XK
CENTER_NAME    = EARTH
REF_FRAME      = TEME
TIME_SYSTEM    = UTC
MEAN_ELEMENT_THEORY = SGP/SGP4

EPOCH          = 2026-01-26T16:52:26.420448
MEAN_MOTION    = 15.78296122
ECCENTRICITY   = .0004131
INCLINATION    = 51.6242
RA_OF_ASC_NODE = 267.2629
ARG_OF_PERICENTER = 156.7640
MEAN_ANOMALY   = 203.3548

EPHEMERIS_TYPE = 0
CLASSIFICATION_TYPE = U
NORAD_CAT_ID   = 65731
ELEMENT_SET_NO = 999
REV_AT_EPOCH   = 2021
BSTAR          = .1254E-2
MEAN_MOTION_DOT = .225808E-2
MEAN_MOTION_DDOT = 0

CCSDS_OMM_VERS = 2.0
CREATION_DATE  = 
ORIGINATOR     = 

OBJECT_NAME    = RSP-03
OBJECT_ID      = 1998-067XL
CENTER_NAME    = EARTH
REF_FRAME      = TEME
TIME_SYSTEM    = UTC
MEAN_ELEMENT_THEORY = SGP/SGP4

EPOCH          = 2026-01-26T17:59:02.332320
MEAN_MOTION    = 15.87842701
ECCENTRICITY   = .0005454
INCLINATION    = 51.6204
RA_OF_ASC_NODE = 264.5262
ARG_OF_PERICENTER = 175.8657
MEAN_ANOMALY   = 184.2394

EPHEMERIS_TYPE = 0
CLASSIFICATION_TYPE = U
NORAD_CAT_ID   = 65732
ELEMENT_SET_NO = 999
REV_AT_EPOCH   = 2026
BSTAR          = .14672E-2
MEAN_MOTION_DOT = .424302E-2
MEAN_MOTION_DDOT = 0

CCSDS_OMM_VERS = 2.0
CREATION_DATE  = 
ORIGINATOR     = 

OBJECT_NAME    = YOTSUBA-KULOVER
OBJECT_ID      = 1998-067XN
CENTER_NAME    = EARTH
REF_FRAME      = TEME
TIME_SYSTEM    = UTC
MEAN_ELEMENT_THEORY = SGP/SGP4

EPOCH          = 2026-01-26T15:47:25.220256
MEAN_MOTION    = 15.67591432
ECCENTRICITY   = .00044383
INCLINATION    = 51.6264
RA_OF_ASC_NODE = 272.9869
ARG_OF_PERICENTER = 168.1165
MEAN_ANOMALY   = 191.9937

EPHEMERIS_TYPE = 0
CLASSIFICATION_TYPE = U
NORAD_CAT_ID   = 65941
ELEMENT_SET_NO = 999
REV_AT_EPOCH   = 1688
BSTAR          = .10765201E-2
MEAN_MOTION_DOT = .12097E-2
MEAN_MOTION_DDOT = 0

CCSDS_OMM_VERS = 2.0
CREATION_DATE  = 
ORIGINATOR     = 

OBJECT_NAME    = BOTAN
OBJECT_ID      = 1998-067XP
CENTER_NAME    = EARTH
REF_FRAME      = TEME
TIME_SYSTEM    = UTC
MEAN_ELEMENT_THEORY = SGP/SGP4

EPOCH          = 2026-01-25T19:14:50.324640
MEAN_MOTION    = 15.76521703
ECCENTRICITY   = .00051772
INCLINATION    = 51.6217
RA_OF_ASC_NODE = 274.7500
ARG_OF_PERICENTER = 172.7994
MEAN_ANOMALY   = 187.3082

EPHEMERIS_TYPE = 0
CLASSIFICATION_TYPE = U
NORAD_CAT_ID   = 65942
ELEMENT_SET_NO = 999
REV_AT_EPOCH   = 1678
BSTAR          = .16525059E-2
MEAN_MOTION_DOT = .276857E-2
MEAN_MOTION_DDOT = 0

CCSDS_OMM_VERS = 2.0
CREATION_DATE  = 
ORIGINATOR     = 

OBJECT_NAME    = E-KAGAKU-1
OBJECT_ID      = 1998-067XQ
CENTER_NAME    = EARTH
REF_FRAME      = TEME
TIME_SYSTEM    = UTC
MEAN_ELEMENT_THEORY = SGP/SGP4

EPOCH          = 2026-01-26T09:40:25.476096
MEAN_MOTION    = 15.67482387
ECCENTRICITY   = .00031773
INCLINATION    = 51.6285
RA_OF_ASC_NODE = 274.2937
ARG_OF_PERICENTER = 174.3468
MEAN_ANOMALY   = 185.7565

EPHEMERIS_TYPE = 0
CLASSIFICATION_TYPE = U
NORAD_CAT_ID   = 65943
ELEMENT_SET_NO = 999
REV_AT_EPOCH   = 1684
BSTAR          = .11039266E-2
MEAN_MOTION_DOT = .123526E-2
MEAN_MOTION_DDOT = 0

CCSDS_OMM_VERS = 2.0
CREATION_DATE  = 
ORIGINATOR     = 

OBJECT_NAME    = HRC MONOBLOCK CAMERA
OBJECT_ID      = 1998-067XR
CENTER_NAME    = EARTH
REF_FRAME      = TEME
TIME_SYSTEM    = UTC
MEAN_ELEMENT_THEORY = SGP/SGP4

EPOCH          = 2026-01-26T16:14:22.103808
MEAN_MOTION    = 15.57887596
ECCENTRICITY   = .0000528
INCLINATION    = 51.6303
RA_OF_ASC_NODE = 276.8674
ARG_OF_PERICENTER = 41.0184
MEAN_ANOMALY   = 319.0848

EPHEMERIS_TYPE = 0
CLASSIFICATION_TYPE = U
NORAD_CAT_ID   = 66052
ELEMENT_SET_NO = 999
REV_AT_EPOCH   = 1583
BSTAR          = .6832E-3
MEAN_MOTION_DOT = .51816E-3
MEAN_MOTION_DDOT = 0

CCSDS_OMM_VERS = 2.0
CREATION_DATE  = 
ORIGINATOR     = 

OBJECT_NAME    = HTV-X1
OBJECT_ID      = 2025-241A
CENTER_NAME    = EARTH
REF_FRAME      = TEME
TIME_SYSTEM    = UTC
MEAN_ELEMENT_THEORY = SGP/SGP4

EPOCH          = 2026-01-26T13:29:46.905216
MEAN_MOTION    = 15.48203655
ECCENTRICITY   = .0011114
INCLINATION    = 51.6321
RA_OF_ASC_NODE = 280.6014
ARG_OF_PERICENTER = 32.6655
MEAN_ANOMALY   = 327.5019

EPHEMERIS_TYPE = 0
CLASSIFICATION_TYPE = U
NORAD_CAT_ID   = 66174
ELEMENT_SET_NO = 999
REV_AT_EPOCH   = 51
BSTAR          = .2438867E-3
MEAN_MOTION_DOT = .12665E-3
MEAN_MOTION_DDOT = 0

CCSDS_OMM_VERS = 2.0
CREATION_DATE  = 
ORIGINATOR     = 

OBJECT_NAME    = SZ-21 MODULE
OBJECT_ID      = 2025-246C
CENTER_NAME    = EARTH
REF_FRAME      = TEME
TIME_SYSTEM    = UTC
MEAN_ELEMENT_THEORY = SGP/SGP4

EPOCH          = 2026-01-26T13:29:08.811456
MEAN_MOTION    = 15.65368052
ECCENTRICITY   = .0003291
INCLINATION    = 41.4753
RA_OF_ASC_NODE = 102.0620
ARG_OF_PERICENTER = 241.2608
MEAN_ANOMALY   = 118.7902

EPHEMERIS_TYPE = 0
CLASSIFICATION_TYPE = U
NORAD_CAT_ID   = 66515
ELEMENT_SET_NO = 999
REV_AT_EPOCH   = 1146
BSTAR          = .36755E-3
MEAN_MOTION_DOT = .37546E-3
MEAN_MOTION_DDOT = 0

CCSDS_OMM_VERS = 2.0
CREATION_DATE  = 
ORIGINATOR     = 

OBJECT_NAME    = SHENZHOU-22
OBJECT_ID      = 2025-272A
CENTER_NAME    = EARTH
REF_FRAME      = TEME
TIME_SYSTEM    = UTC
MEAN_ELEMENT_THEORY = SGP/SGP4

EPOCH          = 2026-01-26T14:08:01.171680
MEAN_MOTION    = 15.61124470
ECCENTRICITY   = .00097448
INCLINATION    = 41.4668
RA_OF_ASC_NODE = 104.0443
ARG_OF_PERICENTER = 7.7194
MEAN_ANOMALY   = 352.3793

EPHEMERIS_TYPE = 0
CLASSIFICATION_TYPE = U
NORAD_CAT_ID   = 66645
ELEMENT_SET_NO = 999
REV_AT_EPOCH   = 26764
BSTAR          = .29991174E-3
MEAN_MOTION_DOT = .25844E-3
MEAN_MOTION_DDOT = 0

CCSDS_OMM_VERS = 2.0
CREATION_DATE  = 
ORIGINATOR     = 

OBJECT_NAME    = SOYUZ-MS 28
OBJECT_ID      = 2025-275A
CENTER_NAME    = EARTH
REF_FRAME      = TEME
TIME_SYSTEM    = UTC
MEAN_ELEMENT_THEORY = SGP/SGP4

EPOCH          = 2026-01-26T13:29:46.904352
MEAN_MOTION    = 15.48203655
ECCENTRICITY   = .0011114
INCLINATION    = 51.6321
RA_OF_ASC_NODE = 280.6014
ARG_OF_PERICENTER = 32.6655
MEAN_ANOMALY   = 327.5019

EPHEMERIS_TYPE = 0
CLASSIFICATION_TYPE = U
NORAD_CAT_ID   = 66664
ELEMENT_SET_NO = 999
REV_AT_EPOCH   = 54980
BSTAR          = .24389E-3
MEAN_MOTION_DOT = .12665E-3
MEAN_MOTION_DDOT = 0

CCSDS_OMM_VERS = 2.0
CREATION_DATE  = 
ORIGINATOR     = 

OBJECT_NAME    = DUPLEX
OBJECT_ID      = 1998-067XS
CENTER_NAME    = EARTH
REF_FRAME      = TEME
TIME_SYSTEM    = UTC
MEAN_ELEMENT_THEORY = SGP/SGP4

EPOCH          = 2026-01-25T23:16:23.310336
MEAN_MOTION    = 15.53209937
ECCENTRICITY   = .00018388
INCLINATION    = 51.6306
RA_OF_ASC_NODE = 282.6444
ARG_OF_PERICENTER = 58.3850
MEAN_ANOMALY   = 301.7319

EPHEMERIS_TYPE = 0
CLASSIFICATION_TYPE = U
NORAD_CAT_ID   = 66906
ELEMENT_SET_NO = 999
REV_AT_EPOCH   = 848
BSTAR          = .53501998E-3
MEAN_MOTION_DOT = .33926E-3
MEAN_MOTION_DDOT = 0

CCSDS_OMM_VERS = 2.0
CREATION_DATE  = 
ORIGINATOR     = 

OBJECT_NAME    = 1998-067XT
OBJECT_ID      = 1998-067XT
CENTER_NAME    = EARTH
REF_FRAME      = TEME
TIME_SYSTEM    = UTC
MEAN_ELEMENT_THEORY = SGP/SGP4

EPOCH          = 2026-01-26T17:16:13.934208
MEAN_MOTION    = 15.58799011
ECCENTRICITY   = .0003153
INCLINATION    = 51.6281
RA_OF_ASC_NODE = 277.9018
ARG_OF_PERICENTER = 130.0462
MEAN_ANOMALY   = 230.0807

EPHEMERIS_TYPE = 0
CLASSIFICATION_TYPE = U
NORAD_CAT_ID   = 66907
ELEMENT_SET_NO = 999
REV_AT_EPOCH   = 861
BSTAR          = .13455E-2
MEAN_MOTION_DOT = .106877E-2
MEAN_MOTION_DDOT = 0

